ONEWEB-0153             
1 48044U 21025C   23278.42676302  .00000356  00000+0  93959-3 0  9993
2 48044  87.9047 156.3583 0001652  72.3594 287.7715 13.13470101124153
ONEWEB-0154             
1 48045U 21025D   23278.11992487  .00000420  00000+0  11141-2 0  9999
2 48045  87.9054 156.4297 0001761  73.3888 286.7435 13.13468582124072
ONEWEB-0116             
1 48046U 21025E   23277.93371753 -.00000239  00000+0 -68914-3 0  9997
2 48046  87.9051 156.4360 0001990  79.1894 280.9459 13.13470564124183
ONEWEB-0150             
1 48047U 21025F   23277.90620954  .00000566  00000+0  15151-2 0  9990
2 48047  87.9054 156.4662 0001479  76.2906 283.8388 13.13466374124071
ONEWEB-0107             
1 48048U 21025G   23277.90831180 -.00000030  00000+0 -11666-3 0  9992
2 48048  87.9055 156.4643 0001299  74.1847 285.9425 13.13467984124054
ONEWEB-0101             
1 48049U 21025H   23278.10086922  .00000088  00000+0  20559-3 0  9994
2 48049  87.9046 156.4353 0001706  69.5029 290.6283 13.13473869124050
ONEWEB-0113             
1 48050U 21025J   23278.07760648 -.00000270  00000+0 -77373-3 0  9997
2 48050  87.8989 156.4544 0001914  75.6955 284.4386 13.13468863124138
ONEWEB-0112             
1 48051U 21025K   23278.06490515 -.00000050  00000+0 -17221-3 0  9992
2 48051  87.9052 156.4311 0001684  78.1537 281.9781 13.13472235124152
